{"type": "FeatureCollection", "features": [ {"type": "Feature", "properties": {"norad_id": 28649, "name": "IRS-P5 (CARTOSAT-1)", "group": "resource", "lat": -24.151780581076025, "lon": 13.294714382715505, "alt_km": 601.975017413437, "timestamp": "2025-12-09T07:41:32.859314+00:00", "meta": {"OBJECT_NAME": "IRS-P5 (CARTOSAT-1)", "OBJECT_ID": "2005-017A", "EPOCH": "2025-12-08T23:44:41.909280", "MEAN_MOTION": 14.90384637, "ECCENTRICITY": 0.00014574, "INCLINATION": 97.5496, "RA_OF_ASC_NODE": 9.5689, "ARG_OF_PERICENTER": 47.5275, "MEAN_ANOMALY": 312.6066, "EPHEMERIS_TYPE": 0, "CLASSIFICATION_TYPE": "U", "NORAD_CAT_ID": 28649, "ELEMENT_SET_NO": 999, "REV_AT_EPOCH": 11548, "BSTAR": 0.00019534507, "MEAN_MOTION_DOT": 1.849e-05, "MEAN_MOTION_DDOT": 0}, "tle": {"line1": "1 28649U 05017A   25342.98937395  .00001849  00000+0  19535-3 0  9998", "line2": "2 28649  97.5496   9.5689 0001457  47.5275 312.6066 14.90384637115483"}}, "geometry": {"type": "Point", "coordinates": [13.294714382715505, -24.151780581076025]}}, {"type": "Feature", "properties": {"norad_id": 28893, "name": "SINAH 1", "group": "resource", "lat": -64.77695351618792, "lon": 129.83083520825593, "alt_km": 696.5913441381663, "timestamp": "2025-12-09T07:41:32.859324+00:00", "meta": {"OBJECT_NAME": "SINAH 1", "OBJECT_ID": "2005-043D", "EPOCH": "2025-12-08T22:09:09.095616", "MEAN_MOTION": 14.6395548, "ECCENTRICITY": 0.00151502, "INCLINATION": 98.2601, "RA_OF_ASC_NODE": 111.4701, "ARG_OF_PERICENTER": 148.344, "MEAN_ANOMALY": 211.8677, "EPHEMERIS_TYPE": 0, "CLASSIFICATION_TYPE": "U", "NORAD_CAT_ID": 28893, "ELEMENT_SET_NO": 999, "REV_AT_EPOCH": 7268, "BSTAR": 0.00016385741, "MEAN_MOTION_DOT": 8.1e-06, "MEAN_MOTION_DDOT": 0}, "tle": {"line1": "1 28893U 05043D   25342.92302194  .00000810  00000+0  16386-3 0  9993", "line2": "2 28893  98.2601 111.4701 0015150 148.3440 211.8677 14.63955480 72689"}}, "geometry": {"type": "Point", "coordinates": [129.83083520825593, -64.77695351618792]}}, {"type": "Feature", "properties": {"norad_id": 29079, "name": "EROS B", "group": "resource", "lat": 68.69358589973983, "lon": -60.94339764610807, "alt_km": 362.37326045478585, "timestamp": "2025-12-09T07:41:32.859336+00:00", "meta": {"OBJECT_NAME": "EROS B", "OBJECT_ID": "2006-014A", "EPOCH": "2025-12-08T22:01:39.287712", "MEAN_MOTION": 15.66722139, "ECCENTRICITY": 0.00016162, "INCLINATION": 97.3478, "RA_OF_ASC_NODE": 99.3139, "ARG_OF_PERICENTER": 281.4066, "MEAN_ANOMALY": 78.7013, "EPHEMERIS_TYPE": 0, "CLASSIFICATION_TYPE": "U", "NORAD_CAT_ID": 29079, "ELEMENT_SET_NO": 999, "REV_AT_EPOCH": 9020, "BSTAR": 0.0015590958, "MEAN_MOTION_DOT": 0.0016663, "MEAN_MOTION_DDOT": 0}, "tle": {"line1": "1 29079U 06014A   25342.91781583  .00166630  00000+0  15591-2 0  9990", "line2": "2 29079  97.3478  99.3139 0001616 281.4066  78.7013 15.66722139 90201"}}, "geometry": {"type": "Point", "coordinates": [-60.94339764610807, 68.69358589973983]}}, {"type": "Feature", "properties": {"norad_id": 29228, "name": "RESURS-DK 1", "group": "resource", "lat": -19.90548269490816, "lon": 103.06873397677998, "alt_km": 533.1432964950263, "timestamp": "2025-12-09T07:41:32.859347+00:00", "meta": {"OBJECT_NAME": "RESURS-DK 1", "OBJECT_ID": "2006-021A", "EPOCH": "2025-12-08T19:05:06.967392", "MEAN_MOTION": 15.12128967, "ECCENTRICITY": 0.00076083, "INCLINATION": 69.9338, "RA_OF_ASC_NODE": 112.0315, "ARG_OF_PERICENTER": 262.3971, "MEAN_ANOMALY": 97.6331, "EPHEMERIS_TYPE": 0, "CLASSIFICATION_TYPE": "U", "NORAD_CAT_ID": 29228, "ELEMENT_SET_NO": 999, "REV_AT_EPOCH": 7378, "BSTAR": 0.00029266812, "MEAN_MOTION_DOT": 4.953e-05, "MEAN_MOTION_DDOT": 0}, "tle": {"line1": "1 29228U 06021A   25342.79521953  .00004953  00000+0  29267-3 0  9998", "line2": "2 29228  69.9338 112.0315 0007608 262.3971  97.6331 15.12128967 73783"}}, "geometry": {"type": "Point", "coordinates": [103.06873397677998, -19.90548269490816]}}, {"type": "Feature", "properties": {"norad_id": 29268, "name": "ARIRANG-2 (KOMPSAT-2)", "group": "resource", "lat": -12.812960351248806, "lon": -9.832762270066675, "alt_km": 689.1830101613323, "timestamp": "2025-12-09T07:41:32.859358+00:00", "meta": {"OBJECT_NAME": "ARIRANG-2 (KOMPSAT-2)", "OBJECT_ID": "2006-031A", "EPOCH": "2025-12-08T23:20:13.382304", "MEAN_MOTION": 14.64489414, "ECCENTRICITY": 0.0013717, "INCLINATION": 97.8258, "RA_OF_ASC_NODE": 171.6287, "ARG_OF_PERICENTER": 321.9848, "MEAN_ANOMALY": 196.5971, "EPHEMERIS_TYPE": 0, "CLASSIFICATION_TYPE": "U", "NORAD_CAT_ID": 29268, "ELEMENT_SET_NO": 999, "REV_AT_EPOCH": 3363, "BSTAR": 0.00017144497, "MEAN_MOTION_DOT": 8.64e-06, "MEAN_MOTION_DDOT": 0}, "tle": {"line1": "1 29268U 06031A   25342.97237711  .00000864  00000+0  17144-3 0  9997", "line2": "2 29268  97.8258 171.6287 0013717 321.9848 196.5971 14.64489414 33632"}}, "geometry": {"type": "Point", "coordinates": [-9.832762270066675, -12.812960351248806]}}, {"type": "Feature", "properties": {"norad_id": 29709, "name": "LAPAN-TUBSAT", "group": "resource", "lat": -46.71039026241422, "lon": 144.6830677434563, "alt_km": 625.9442116608197, "timestamp": "2025-12-09T07:41:32.859370+00:00", "meta": {"OBJECT_NAME": "LAPAN-TUBSAT", "OBJECT_ID": "2007-001A", "EPOCH": "2025-12-08T22:35:30.048864", "MEAN_MOTION": 14.85663161, "ECCENTRICITY": 0.00136794, "INCLINATION": 98.1252, "RA_OF_ASC_NODE": 333.0193, "ARG_OF_PERICENTER": 85.4098, "MEAN_ANOMALY": 274.8678, "EPHEMERIS_TYPE": 0, "CLASSIFICATION_TYPE": "U", "NORAD_CAT_ID": 29709, "ELEMENT_SET_NO": 999, "REV_AT_EPOCH": 2290, "BSTAR": 0.00018403176, "MEAN_MOTION_DOT": 1.54e-05, "MEAN_MOTION_DDOT": 0}, "tle": {"line1": "1 29709U 07001A   25342.94132001  .00001540  00000+0  18403-3 0  9999", "line2": "2 29709  98.1252 333.0193 0013679  85.4098 274.8678 14.85663161 22904"}}, "geometry": {"type": "Point", "coordinates": [144.6830677434563, -46.71039026241422]}}, {"type": "Feature", "properties": {"norad_id": 31113, "name": "HAIYANG-1B", "group": "resource", "lat": 63.47046176842913, "lon": -49.328680009445975, "alt_km": 772.436561598699, "timestamp": "2025-12-09T07:41:32.859392+00:00", "meta": {"OBJECT_NAME": "HAIYANG-1B", "OBJECT_ID": "2007-010A", "EPOCH": "2025-12-08T23:00:03.967200", "MEAN_MOTION": 14.30962926, "ECCENTRICITY": 0.0014422, "INCLINATION": 98.331, "RA_OF_ASC_NODE": 327.3928, "ARG_OF_PERICENTER": 48.4955, "MEAN_ANOMALY": 311.7464, "EPHEMERIS_TYPE": 0, "CLASSIFICATION_TYPE": "U", "NORAD_CAT_ID": 31113, "ELEMENT_SET_NO": 999, "REV_AT_EPOCH": 97342, "BSTAR": 9.0234542e-05, "MEAN_MOTION_DOT": 1.96e-06, "MEAN_MOTION_DDOT": 0}, "tle": {"line1": "1 31113U 07010A   25342.95837925  .00000196  00000+0  90235-4 0  9999", "line2": "2 31113  98.3310 327.3928 0014422  48.4955 311.7464 14.30962926973420"}}, "geometry": {"type": "Point", "coordinates": [-49.328680009445975, 63.47046176842913]}}, {"type": "Feature", "properties": {"norad_id": 31598, "name": "COSMO-SKYMED 1", "group": "resource", "lat": 58.45119240408033, "lon": 155.65453141550776, "alt_km": 573.82146567782, "timestamp": "2025-12-09T07:41:32.859412+00:00", "meta": {"OBJECT_NAME": "COSMO-SKYMED 1", "OBJECT_ID": "2007-023A", "EPOCH": "2025-12-08T23:24:00.804384", "MEAN_MOTION": 14.95719221, "ECCENTRICITY": 0.0001056, "INCLINATION": 97.8835, "RA_OF_ASC_NODE": 168.3499, "ARG_OF_PERICENTER": 82.279, "MEAN_ANOMALY": 277.8551, "EPHEMERIS_TYPE": 0, "CLASSIFICATION_TYPE": "U", "NORAD_CAT_ID": 31598, "ELEMENT_SET_NO": 999, "REV_AT_EPOCH": 134, "BSTAR": 0.0004210085, "MEAN_MOTION_DOT": 4.63e-05, "MEAN_MOTION_DDOT": 0}, "tle": {"line1": "1 31598U 07023A   25342.97500931  .00004630  00000+0  42101-3 0  9991", "line2": "2 31598  97.8835 168.3499 0001056  82.2790 277.8551 14.95719221  1342"}}, "geometry": {"type": "Point", "coordinates": [155.65453141550776, 58.45119240408033]}}, {"type": "Feature", "properties": {"norad_id": 31698, "name": "TERRASAR-X", "group": "resource", "lat": 31.841602592701513, "lon": 173.408278258394, "alt_km": 506.04804958714794, "timestamp": "2025-12-09T07:41:32.859433+00:00", "meta": {"OBJECT_NAME": "TERRASAR-X", "OBJECT_ID": "2007-026A", "EPOCH": "2025-12-08T12:04:27.872832", "MEAN_MOTION": 15.19158704, "ECCENTRICITY": 0.0001724, "INCLINATION": 97.4451, "RA_OF_ASC_NODE": 347.9445, "ARG_OF_PERICENTER": 89.3855, "MEAN_ANOMALY": 270.7577, "EPHEMERIS_TYPE": 0, "CLASSIFICATION_TYPE": "U", "NORAD_CAT_ID": 31698, "ELEMENT_SET_NO": 999, "REV_AT_EPOCH": 2427, "BSTAR": 0.00014009, "MEAN_MOTION_DOT": 2.877e-05, "MEAN_MOTION_DDOT": 0}, "tle": {"line1": "1 31698U 07026A   25342.50310038  .00002877  00000+0  14009-3 0  9998", "line2": "2 31698  97.4451 347.9445 0001724  89.3855 270.7577 15.19158704 24278"}}, "geometry": {"type": "Point", "coordinates": [173.408278258394, 31.841602592701513]}}, {"type": "Feature", "properties": {"norad_id": 32060, "name": "WORLDVIEW-1 (WV-1)", "group": "resource", "lat": 78.75254739861835, "lon": 60.147929322444774, "alt_km": 484.17280765583746, "timestamp": "2025-12-09T07:41:32.859446+00:00", "meta": {"OBJECT_NAME": "WORLDVIEW-1 (WV-1)", "OBJECT_ID": "2007-041A", "EPOCH": "2025-12-08T21:53:06.561600", "MEAN_MOTION": 15.24589511, "ECCENTRICITY": 7.757e-05, "INCLINATION": 97.3841, "RA_OF_ASC_NODE": 100.4473, "ARG_OF_PERICENTER": 102.6667, "MEAN_ANOMALY": 257.4658, "EPHEMERIS_TYPE": 0, "CLASSIFICATION_TYPE": "U", "NORAD_CAT_ID": 32060, "ELEMENT_SET_NO": 999, "REV_AT_EPOCH": 1389, "BSTAR": 0.00039710816, "MEAN_MOTION_DOT": 9.722e-05, "MEAN_MOTION_DDOT": 0}, "tle": {"line1": "1 32060U 07041A   25342.91188150  .00009722  00000+0  39711-3 0  9995", "line2": "2 32060  97.3841 100.4473 0000775 102.6667 257.4658 15.24589511 13890"}}, "geometry": {"type": "Point", "coordinates": [60.147929322444774, 78.75254739861835]}}]}